[{"OBJECT_NAME":"STARLINK-2399","OBJECT_ID":"2021-018AF","EPOCH":"2026-03-19T14:41:42.708768","MEAN_MOTION":15.06399275,"ECCENTRICITY":0.0001115,"INCLINATION":53.0549,"RA_OF_ASC_NODE":207.074,"ARG_OF_PERICENTER":99.0941,"MEAN_ANOMALY":261.0174,"EPHEMERIS_TYPE":0,"CLASSIFICATION_TYPE":"U","NORAD_CAT_ID":47816,"ELEMENT_SET_NO":999,"REV_AT_EPOCH":27808,"BSTAR":8.0126e-5,"MEAN_MOTION_DOT":9.12e-6,"MEAN_MOTION_DDOT":0},{"OBJECT_NAME":"STARLINK-2400","OBJECT_ID":"2021-018AG","EPOCH":"2026-03-19T17:42:10.718784","MEAN_MOTION":15.30199766,"ECCENTRICITY":0.0001202,"INCLINATION":53.1579,"RA_OF_ASC_NODE":196.4538,"ARG_OF_PERICENTER":84.994,"MEAN_ANOMALY":275.1198,"EPHEMERIS_TYPE":0,"CLASSIFICATION_TYPE":"U","NORAD_CAT_ID":47817,"ELEMENT_SET_NO":999,"REV_AT_EPOCH":27825,"BSTAR":0.00014896,"MEAN_MOTION_DOT":4.055e-5,"MEAN_MOTION_DDOT":0},{"OBJECT_NAME":"STARLINK-2401","OBJECT_ID":"2021-018AH","EPOCH":"2026-03-19T15:22:42.909024","MEAN_MOTION":15.43537356,"ECCENTRICITY":0.0001996,"INCLINATION":53.0485,"RA_OF_ASC_NODE":205.4199,"ARG_OF_PERICENTER":12.4436,"MEAN_ANOMALY":347.6618,"EPHEMERIS_TYPE":0,"CLASSIFICATION_TYPE":"U","NORAD_CAT_ID":47818,"ELEMENT_SET_NO":999,"REV_AT_EPOCH":27811,"BSTAR":0.0014479,"MEAN_MOTION_DOT":0.0006615,"MEAN_MOTION_DDOT":0},{"OBJECT_NAME":"STARLINK-2402","OBJECT_ID":"2021-018AJ","EPOCH":"2026-03-19T17:39:08.514144","MEAN_MOTION":15.30125249,"ECCENTRICITY":0.0001676,"INCLINATION":53.1591,"RA_OF_ASC_NODE":196.4045,"ARG_OF_PERICENTER":82.2157,"MEAN_ANOMALY":277.9034,"EPHEMERIS_TYPE":0,"CLASSIFICATION_TYPE":"U","NORAD_CAT_ID":47819,"ELEMENT_SET_NO":999,"REV_AT_EPOCH":27832,"BSTAR":0.00056227,"MEAN_MOTION_DOT":0.00016292,"MEAN_MOTION_DDOT":0},{"OBJECT_NAME":"STARLINK-2406","OBJECT_ID":"2021-018AL","EPOCH":"2026-03-19T17:28:27.280992","MEAN_MOTION":15.30185028,"ECCENTRICITY":0.000134,"INCLINATION":53.1604,"RA_OF_ASC_NODE":196.1306,"ARG_OF_PERICENTER":77.7087,"MEAN_ANOMALY":282.4064,"EPHEMERIS_TYPE":0,"CLASSIFICATION_TYPE":"U","NORAD_CAT_ID":47821,"ELEMENT_SET_NO":999,"REV_AT_EPOCH":27826,"BSTAR":0.00012388,"MEAN_MOTION_DOT":3.31e-5,"MEAN_MOTION_DDOT":0},{"OBJECT_NAME":"STARLINK-2407","OBJECT_ID":"2021-018AM","EPOCH":"2026-03-19T17:33:44.160768","MEAN_MOTION":15.3019637,"ECCENTRICITY":0.0001385,"INCLINATION":53.1599,"RA_OF_ASC_NODE":208.6448,"ARG_OF_PERICENTER":86.8061,"MEAN_ANOMALY":273.3098,"EPHEMERIS_TYPE":0,"CLASSIFICATION_TYPE":"U","NORAD_CAT_ID":47822,"ELEMENT_SET_NO":999,"REV_AT_EPOCH":27809,"BSTAR":3.9909e-5,"MEAN_MOTION_DOT":8.23e-6,"MEAN_MOTION_DDOT":0},{"OBJECT_NAME":"STARLINK-2408","OBJECT_ID":"2021-018AN","EPOCH":"2026-03-19T18:02:01.791168","MEAN_MOTION":15.0639726,"ECCENTRICITY":0.0002431,"INCLINATION":53.0496,"RA_OF_ASC_NODE":206.4366,"ARG_OF_PERICENTER":102.5426,"MEAN_ANOMALY":257.5835,"EPHEMERIS_TYPE":0,"CLASSIFICATION_TYPE":"U","NORAD_CAT_ID":47823,"ELEMENT_SET_NO":999,"REV_AT_EPOCH":27811,"BSTAR":2.9013e-5,"MEAN_MOTION_DOT":1.5e-6,"MEAN_MOTION_DDOT":0},{"OBJECT_NAME":"STARLINK-2409","OBJECT_ID":"2021-018AP","EPOCH":"2026-03-19T17:47:28.255200","MEAN_MOTION":15.06395616,"ECCENTRICITY":0.0001166,"INCLINATION":53.0557,"RA_OF_ASC_NODE":206.4951,"ARG_OF_PERICENTER":90.4596,"MEAN_ANOMALY":269.6527,"EPHEMERIS_TYPE":0,"CLASSIFICATION_TYPE":"U","NORAD_CAT_ID":47824,"ELEMENT_SET_NO":999,"REV_AT_EPOCH":27810,"BSTAR":5.6118e-5,"MEAN_MOTION_DOT":5.55e-6,"MEAN_MOTION_DDOT":0},{"OBJECT_NAME":"STARLINK-2410","OBJECT_ID":"2021-018AQ","EPOCH":"2026-03-19T16:56:36.504384","MEAN_MOTION":15.30204738,"ECCENTRICITY":0.0001537,"INCLINATION":53.1601,"RA_OF_ASC_NODE":196.3185,"ARG_OF_PERICENTER":75.1243,"MEAN_ANOMALY":284.9928,"EPHEMERIS_TYPE":0,"CLASSIFICATION_TYPE":"U","NORAD_CAT_ID":47825,"ELEMENT_SET_NO":999,"REV_AT_EPOCH":27826,"BSTAR":0.00014334,"MEAN_MOTION_DOT":3.889e-5,"MEAN_MOTION_DDOT":0},{"OBJECT_NAME":"STARLINK-2411","OBJECT_ID":"2021-018AR","EPOCH":"2026-03-19T17:18:37.576800","MEAN_MOTION":15.30198889,"ECCENTRICITY":0.0001256,"INCLINATION":53.1587,"RA_OF_ASC_NODE":198.3962,"ARG_OF_PERICENTER":86.5232,"MEAN_ANOMALY":273.5912,"EPHEMERIS_TYPE":0,"CLASSIFICATION_TYPE":"U","NORAD_CAT_ID":47826,"ELEMENT_SET_NO":999,"REV_AT_EPOCH":27823,"BSTAR":7.1951e-5,"MEAN_MOTION_DOT":1.772e-5,"MEAN_MOTION_DDOT":0},{"OBJECT_NAME":"STARLINK-2413","OBJECT_ID":"2021-018AS","EPOCH":"2026-03-19T20:00:01.999008","MEAN_MOTION":15.2934253,"ECCENTRICITY":9.28e-5,"INCLINATION":53.1574,"RA_OF_ASC_NODE":195.0901,"ARG_OF_PERICENTER":73.459,"MEAN_ANOMALY":42.316,"EPHEMERIS_TYPE":0,"CLASSIFICATION_TYPE":"U","NORAD_CAT_ID":47827,"ELEMENT_SET_NO":999,"REV_AT_EPOCH":581,"BSTAR":0.001178,"MEAN_MOTION_DOT":0.00033778,"MEAN_MOTION_DDOT":0},{"OBJECT_NAME":"STARLINK-2415","OBJECT_ID":"2021-018AT","EPOCH":"2026-03-19T17:38:17.342016","MEAN_MOTION":15.30192574,"ECCENTRICITY":0.0001204,"INCLINATION":53.1575,"RA_OF_ASC_NODE":208.6247,"ARG_OF_PERICENTER":87.7924,"MEAN_ANOMALY":272.3214,"EPHEMERIS_TYPE":0,"CLASSIFICATION_TYPE":"U","NORAD_CAT_ID":47828,"ELEMENT_SET_NO":999,"REV_AT_EPOCH":27809,"BSTAR":-7.0424e-6,"MEAN_MOTION_DOT":-5.68e-6,"MEAN_MOTION_DDOT":0},{"OBJECT_NAME":"STARLINK-2419","OBJECT_ID":"2021-018AV","EPOCH":"2026-03-19T17:15:37.018080","MEAN_MOTION":15.30198812,"ECCENTRICITY":0.0001053,"INCLINATION":53.1598,"RA_OF_ASC_NODE":209.0491,"ARG_OF_PERICENTER":84.9294,"MEAN_ANOMALY":275.1827,"EPHEMERIS_TYPE":0,"CLASSIFICATION_TYPE":"U","NORAD_CAT_ID":47830,"ELEMENT_SET_NO":999,"REV_AT_EPOCH":27807,"BSTAR":2.5001e-6,"MEAN_MOTION_DOT":-2.85e-6,"MEAN_MOTION_DDOT":0},{"OBJECT_NAME":"STARLINK-2420","OBJECT_ID":"2021-018AW","EPOCH":"2026-03-19T18:08:01.751712","MEAN_MOTION":15.06434068,"ECCENTRICITY":0.0001488,"INCLINATION":53.055,"RA_OF_ASC_NODE":191.4306,"ARG_OF_PERICENTER":97.9368,"MEAN_ANOMALY":262.1789,"EPHEMERIS_TYPE":0,"CLASSIFICATION_TYPE":"U","NORAD_CAT_ID":47831,"ELEMENT_SET_NO":999,"REV_AT_EPOCH":27837,"BSTAR":-0.00040598,"MEAN_MOTION_DOT":-6.329e-5,"MEAN_MOTION_DDOT":0},{"OBJECT_NAME":"STARLINK-2422","OBJECT_ID":"2021-018AX","EPOCH":"2026-03-19T14:19:43.640832","MEAN_MOTION":15.30214927,"ECCENTRICITY":0.0001311,"INCLINATION":53.1596,"RA_OF_ASC_NODE":199.4731,"ARG_OF_PERICENTER":86.7863,"MEAN_ANOMALY":273.3288,"EPHEMERIS_TYPE":0,"CLASSIFICATION_TYPE":"U","NORAD_CAT_ID":47832,"ELEMENT_SET_NO":999,"REV_AT_EPOCH":27820,"BSTAR":0.00017529,"MEAN_MOTION_DOT":4.838e-5,"MEAN_MOTION_DDOT":0},{"OBJECT_NAME":"STARLINK-2423","OBJECT_ID":"2021-018AY","EPOCH":"2026-03-19T16:06:37.680480","MEAN_MOTION":15.06401307,"ECCENTRICITY":0.0001081,"INCLINATION":53.0552,"RA_OF_ASC_NODE":206.809,"ARG_OF_PERICENTER":81.5725,"MEAN_ANOMALY":278.5387,"EPHEMERIS_TYPE":0,"CLASSIFICATION_TYPE":"U","NORAD_CAT_ID":47833,"ELEMENT_SET_NO":999,"REV_AT_EPOCH":27815,"BSTAR":0.00014077,"MEAN_MOTION_DOT":1.816e-5,"MEAN_MOTION_DDOT":0},{"OBJECT_NAME":"STARLINK-2424","OBJECT_ID":"2021-018AZ","EPOCH":"2026-03-19T17:14:05.836704","MEAN_MOTION":15.30140372,"ECCENTRICITY":0.0001753,"INCLINATION":53.1595,"RA_OF_ASC_NODE":198.4496,"ARG_OF_PERICENTER":86.9583,"MEAN_ANOMALY":273.1618,"EPHEMERIS_TYPE":0,"CLASSIFICATION_TYPE":"U","NORAD_CAT_ID":47834,"ELEMENT_SET_NO":999,"REV_AT_EPOCH":27828,"BSTAR":0.00064779,"MEAN_MOTION_DOT":0.0001884,"MEAN_MOTION_DDOT":0}]
