STARLINK-2399           
1 47816U 21018AF  26078.61229987  .00000912  00000+0  80126-4 0  9997
2 47816  53.0549 207.0740 0001115  99.0941 261.0174 15.06399275278087
STARLINK-2400           
1 47817U 21018AG  26078.73762406  .00004055  00000+0  14896-3 0  9991
2 47817  53.1579 196.4538 0001202  84.9940 275.1198 15.30199766278258
STARLINK-2401           
1 47818U 21018AH  26078.64077441  .00066150  00000+0  14479-2 0  9990
2 47818  53.0485 205.4199 0001996  12.4436 347.6618 15.43537356278116
STARLINK-2402           
1 47819U 21018AJ  26078.73551521  .00016292  00000+0  56227-3 0  9997
2 47819  53.1591 196.4045 0001676  82.2157 277.9034 15.30125249278325
STARLINK-2406           
1 47821U 21018AL  26078.72809353  .00003310  00000+0  12388-3 0  9995
2 47821  53.1604 196.1306 0001340  77.7087 282.4064 15.30185028278267
STARLINK-2407           
1 47822U 21018AM  26078.73176112  .00000823  00000+0  39909-4 0  9992
2 47822  53.1599 208.6448 0001385  86.8061 273.3098 15.30196370278098
STARLINK-2408           
1 47823U 21018AN  26078.75140962  .00000150  00000+0  29013-4 0  9997
2 47823  53.0496 206.4366 0002431 102.5426 257.5835 15.06397260278113
STARLINK-2409           
1 47824U 21018AP  26078.74129925  .00000555  00000+0  56118-4 0  9998
2 47824  53.0557 206.4951 0001166  90.4596 269.6527 15.06395616278103
STARLINK-2410           
1 47825U 21018AQ  26078.70597806  .00003889  00000+0  14334-3 0  9998
2 47825  53.1601 196.3185 0001537  75.1243 284.9928 15.30204738278265
STARLINK-2411           
1 47826U 21018AR  26078.72126825  .00001772  00000+0  71951-4 0  9998
2 47826  53.1587 198.3962 0001256  86.5232 273.5912 15.30198889278239
STARLINK-2413           
1 47827U 21018AS  26078.83335647  .00033778  00000+0  11780-2 0  9998
2 47827  53.1574 195.0901 0000928  73.4590  42.3160 15.29342530  5811
STARLINK-2415           
1 47828U 21018AT  26078.73492294 -.00000568  00000+0 -70424-5 0  9996
2 47828  53.1575 208.6247 0001204  87.7924 272.3214 15.30192574278094
STARLINK-2419           
1 47830U 21018AV  26078.71917845 -.00000285  00000+0  25001-5 0  9997
2 47830  53.1598 209.0491 0001053  84.9294 275.1827 15.30198812278079
STARLINK-2420           
1 47831U 21018AW  26078.75557583 -.00006329  00000+0 -40598-3 0  9993
2 47831  53.0550 191.4306 0001488  97.9368 262.1789 15.06434068278379
STARLINK-2422           
1 47832U 21018AX  26078.59703288  .00004838  00000+0  17529-3 0  9990
2 47832  53.1596 199.4731 0001311  86.7863 273.3288 15.30214927278209
STARLINK-2423           
1 47833U 21018AY  26078.67126945  .00001816  00000+0  14077-3 0  9997
2 47833  53.0552 206.8090 0001081  81.5725 278.5387 15.06401307278150
STARLINK-2424           
1 47834U 21018AZ  26078.71812311  .00018840  00000+0  64779-3 0  9991
2 47834  53.1595 198.4496 0001753  86.9583 273.1618 15.30140372278283
